NORAD_CAT_ID,OBJECT_NAME,OBJECT_TYPE,EPOCH,MEAN_MOTION,ECCENTRICITY,INCLINATION,RA_OF_ASC_NODE,ARG_OF_PERICENTER,MEAN_ANOMALY,BSTAR,MEAN_MOTION_DOT,MEAN_MOTION_DDOT,TLE_LINE0,TLE_LINE1,TLE_LINE2,SEMIMAJOR_AXIS,PERIOD,APOGEE,PERIGEE,DECAYED
52535.0,STARLINK-3958,PAYLOAD,2023-09-27 04:53:59,15.0883081,0.0001514,53.2171,184.6198,92.0717,268.0448,-9.832e-05,-1.852e-05,0.0,0 STARLINK-3958,1 52535U 22051C   23270.20415823 -.00001852  00000-0 -98320-4 0  9993,2 52535  53.2171 184.6198 0001514  92.0717 268.0448 15.08830810 76475,6917.908,95.438,540.821,538.726,0.0
52535.0,STARLINK-3958,PAYLOAD,2023-09-27 11:15:32,15.08823284,0.0001533,53.2166,183.4294,89.7817,270.3351,-0.00021817,-3.757e-05,0.0,0 STARLINK-3958,1 52535U 22051C   23270.46912407 -.00003757  00000-0 -21817-3 0  9993,2 52535  53.2166 183.4294 0001533  89.7817 270.3351 15.08823284 76441,6917.931,95.439,540.857,538.736,0.0
52535.0,STARLINK-3958,PAYLOAD,2023-09-28 01:34:00,15.08828266,0.0001571,53.2168,180.7549,89.7059,270.4113,-0.00016535,-2.918e-05,0.0,0 STARLINK-3958,1 52535U 22051C   23271.06528884 -.00002918  00000-0 -16535-3 0  9991,2 52535  53.2168 180.7549 0001571  89.7059 270.4113 15.08828266 76606,6917.916,95.438,540.868,538.694,0.0
52535.0,STARLINK-3958,PAYLOAD,2023-09-28 22:14:01,15.08841701,0.0001598,53.2167,176.8912,92.6951,267.4224,0.00040676,6.192e-05,0.0,0 STARLINK-3958,1 52535U 22051C   23271.92640990  .00006192  00000-0  40676-3 0  9998,2 52535  53.2167 176.8912 0001598  92.6951 267.4224 15.08841701 76662,6917.875,95.437,540.846,538.635,0.0
52535.0,STARLINK-3958,PAYLOAD,2023-09-28 23:49:24,15.08845272,0.0001643,53.2168,176.5938,91.9375,268.1805,0.00046523,7.125e-05,0.0,0 STARLINK-3958,1 52535U 22051C   23271.99264934  .00007125  00000-0  46523-3 0  9999,2 52535  53.2168 176.5938 0001643  91.9375 268.1805 15.08845272 76740,6917.864,95.437,540.866,538.593,0.0
52535.0,STARLINK-3958,PAYLOAD,2023-09-29 23:40:11,15.08855255,0.0001559,53.2163,172.1353,96.4638,263.6532,0.00028393,4.235e-05,0.0,0 STARLINK-3958,1 52535U 22051C   23272.98624254  .00004235  00000-0  28393-3 0  9998,2 52535  53.2163 172.1353 0001559  96.4638 263.6532 15.08855255 76824,6917.834,95.437,540.777,538.62,0.0
52535.0,STARLINK-3958,PAYLOAD,2023-09-30 17:09:26,15.08840751,0.0001979,53.2168,168.8638,92.7825,267.3394,-7.7511e-05,-1.522e-05,0.0,0 STARLINK-3958,1 52535U 22051C   23273.71488795 -.00001522  00000-0 -77511-4 0  9993,2 52535  53.2168 168.8638 0001979  92.7825 267.3394 15.08840751 77003,6917.878,95.438,541.112,538.374,0.0
52535.0,STARLINK-3958,PAYLOAD,2023-10-01 10:38:40,15.08841787,0.0001299,53.215,165.589,105.9081,254.2054,-1.0392e-05,-4.53e-06,0.0,0 STARLINK-3958,1 52535U 22051C   23274.44352472 -.00000453  00000-0 -10392-4 0  9992,2 52535  53.2150 165.5890 0001299 105.9081 254.2054 15.08841787 77046,6917.875,95.437,540.639,538.841,0.0
52535.0,STARLINK-3958,PAYLOAD,2023-10-01 21:46:22,15.08847354,0.0001334,53.2153,163.5092,103.8737,256.2403,6.5013e-05,7.47e-06,0.0,0 STARLINK-3958,1 52535U 22051C   23274.90720223  .00000747  00000-0  65013-4 0  9990,2 52535  53.2153 163.5092 0001334 103.8737 256.2403 15.08847354 77110,6917.858,95.437,540.646,538.8,0.0
52535.0,STARLINK-3958,PAYLOAD,2023-10-01 23:21:45,15.08851246,0.0001323,53.2156,163.2117,105.1966,254.9173,0.0001287,1.762e-05,0.0,0 STARLINK-3958,1 52535U 22051C   23274.97344008  .00001762  00000-0  12870-3 0  9990,2 52535  53.2156 163.2117 0001323 105.1966 254.9173 15.08851246 77197,6917.846,95.437,540.626,538.796,0.0
52535.0,STARLINK-3958,PAYLOAD,2023-10-02 04:07:54,15.08859646,0.000137,53.2153,162.3199,107.1345,252.9797,0.00031547,4.739e-05,0.0,0 STARLINK-3958,1 52535U 22051C   23275.17215494  .00004739  00000-0  31547-3 0  9998,2 52535  53.2153 162.3199 0001370 107.1345 252.9797 15.08859646 77225,6917.82,95.436,540.633,538.738,0.0
52535.0,STARLINK-3958,PAYLOAD,2023-10-02 20:01:46,15.08834172,0.0001398,53.2156,159.3472,59.927,300.1861,0.00013051,1.789e-05,0.0,0 STARLINK-3958,1 52535U 22051C   23275.83457130  .00001789  00000-0  13051-3 0  9998,2 52535  53.2156 159.3472 0001398  59.9270 300.1861 15.08834172 77325,6917.898,95.438,540.73,538.796,0.0
52535.0,STARLINK-3958,PAYLOAD,2023-10-03 02:23:18,15.0884791,0.0001331,53.2152,158.156,92.3281,267.7864,0.00024752,3.654e-05,0.0,0 STARLINK-3958,1 52535U 22051C   23276.09952363  .00003654  00000-0  24752-3 0  9998,2 52535  53.2152 158.1560 0001331  92.3281 267.7864 15.08847910 77365,6917.856,95.437,540.642,538.8,0.0
52535.0,STARLINK-3958,PAYLOAD,2023-10-03 08:44:51,15.08853136,0.0001332,53.2151,156.9666,91.9972,268.1173,0.00031942,4.801e-05,0.0,0 STARLINK-3958,1 52535U 22051C   23276.36448084  .00004801  00000-0  31942-3 0  9992,2 52535  53.2151 156.9666 0001332  91.9972 268.1173 15.08853136 77332,6917.84,95.437,540.627,538.784,0.0
52535.0,STARLINK-3958,PAYLOAD,2023-10-03 21:27:55,15.0884889,0.0001105,53.2155,154.5874,110.0684,250.0427,0.00019586,2.831e-05,0.0,0 STARLINK-3958,1 52535U 22051C   23276.89439740  .00002831  00000-0  19586-3 0  9990,2 52535  53.2155 154.5874 0001105 110.0684 250.0427 15.08848890 77414,6917.853,95.437,540.483,538.954,0.0
52535.0,STARLINK-3958,PAYLOAD,2023-10-03 23:03:19,15.08827285,0.0001266,53.2158,154.2924,89.5986,270.5152,-0.00042144,-6.986e-05,0.0,0 STARLINK-3958,1 52535U 22051C   23276.96064348 -.00006986  00000-0 -42144-3 0  9999,2 52535  53.2158 154.2924 0001266  89.5986 270.5152 15.08827285 77498,6917.919,95.438,540.66,538.908,0.0
52535.0,STARLINK-3958,PAYLOAD,2023-10-04 08:35:38,15.08833644,0.0001162,53.2153,152.508,94.6386,265.4739,-0.00018959,-3.303e-05,0.0,0 STARLINK-3958,1 52535U 22051C   23277.35808504 -.00003303  00000-0 -18959-3 0  9990,2 52535  53.2153 152.5080 0001162  94.6386 265.4739 15.08833644 77482,6917.9,95.438,540.569,538.961,0.0
52535.0,STARLINK-3958,PAYLOAD,2023-10-04 21:18:43,15.08846871,0.0001227,53.2152,150.1272,87.7581,272.3551,0.0001004,1.311e-05,0.0,0 STARLINK-3958,1 52535U 22051C   23277.88800154  .00001311  00000-0  10040-3 0  9999,2 52535  53.2152 150.1272 0001227  87.7581 272.3551 15.08846871 77564,6917.859,95.437,540.573,538.876,0.0
52535.0,STARLINK-3958,PAYLOAD,2023-10-05 00:29:29,15.08855484,0.0001195,53.2153,149.5332,89.1143,270.9986,0.00034423,5.197e-05,0.0,0 STARLINK-3958,1 52535U 22051C   23278.02047832  .00005197  00000-0  34423-3 0  9999,2 52535  53.2153 149.5332 0001195  89.1143 270.9986 15.08855484 77654,6917.833,95.437,540.525,538.871,0.0
52535.0,STARLINK-3958,PAYLOAD,2023-10-05 21:09:30,15.08842896,0.0001467,53.2151,145.6666,91.9287,268.1873,0.00038741,5.884e-05,0.0,0 STARLINK-3958,1 52535U 22051C   23278.88160871  .00005884  00000-0  38741-3 0  9992,2 52535  53.2151 145.6666 0001467  91.9287 268.1873 15.08842896 77782,6917.872,95.437,540.751,538.722,0.0
52535.0,STARLINK-3958,PAYLOAD,2023-10-06 08:17:13,15.08841202,0.0001795,53.2157,143.5856,77.2822,282.837,0.00051762,7.96e-05,0.0,0 STARLINK-3958,1 52535U 22051C   23279.34529216  .00007960  00000-0  51762-3 0  9991,2 52535  53.2157 143.5856 0001795  77.2822 282.8370 15.08841202 77855,6917.877,95.437,540.983,538.5,0.0
52535.0,STARLINK-3958,PAYLOAD,2023-10-06 21:00:18,15.08828972,0.0001836,53.2161,141.2081,78.5113,281.6085,0.0003087,4.627e-05,0.0,0 STARLINK-3958,1 52535U 22051C   23279.87521796  .00004627  00000-0  30870-3 0  9998,2 52535  53.2161 141.2081 0001836  78.5113 281.6085 15.08828972 77936,6917.914,95.438,541.049,538.509,0.0
52535.0,STARLINK-3958,PAYLOAD,2023-10-06 22:35:41,15.08831136,0.0001837,53.2164,140.9108,78.8008,281.319,0.00027544,4.097e-05,0.0,0 STARLINK-3958,1 52535U 22051C   23279.94145777  .00004097  00000-0  27544-3 0  9992,2 52535  53.2164 140.9108 0001837  78.8008 281.3190 15.08831136 77875,6917.907,95.438,541.043,538.502,0.0
52535.0,STARLINK-3958,PAYLOAD,2023-10-07 00:11:04,15.08839472,0.0001498,53.2153,140.6121,80.1962,279.9199,0.00029743,4.449e-05,0.0,0 STARLINK-3958,1 52535U 22051C   23280.00769424  .00004449  00000-0  29743-3 0  9996,2 52535  53.2153 140.6121 0001498  80.1962 279.9199 15.08839472 77955,6917.882,95.438,540.783,538.711,0.0
52535.0,STARLINK-3958,PAYLOAD,2023-10-07 20:51:05,15.08846993,0.0001476,53.215,136.745,93.9541,266.162,0.00051559,7.929e-05,0.0,0 STARLINK-3958,1 52535U 22051C   23280.86881475  .00007929  00000-0  51559-3 0  9997,2 52535  53.2150 136.7450 0001476  93.9541 266.1620 15.08846993 78015,6917.859,95.437,540.745,538.703,0.0
52535.0,STARLINK-3958,PAYLOAD,2023-10-08 07:58:47,15.08848447,0.0001713,53.2163,134.6616,99.7763,260.3423,0.00020979,3.053e-05,0.0,0 STARLINK-3958,1 52535U 22051C   23281.33249275  .00003053  00000-0  20979-3 0  9992,2 52535  53.2163 134.6616 0001713  99.7763 260.3423 15.08848447 78152,6917.855,95.437,540.905,538.535,0.0
52535.0,STARLINK-3958,PAYLOAD,2023-10-08 20:41:52,15.08850627,0.0001638,53.2167,132.2808,104.7195,255.3978,0.00020694,3.008e-05,0.0,0 STARLINK-3958,1 52535U 22051C   23281.86240942  .00003008  00000-0  20694-3 0  9996,2 52535  53.2167 132.2808 0001638 104.7195 255.3978 15.08850627 78168,6917.848,95.437,540.846,538.58,0.0
52535.0,STARLINK-3958,PAYLOAD,2023-10-08 22:17:15,15.08849826,0.000166,53.2167,131.9835,105.511,254.6065,0.00018923,2.726e-05,0.0,0 STARLINK-3958,1 52535U 22051C   23281.92864938  .00002726  00000-0  18923-3 0  9998,2 52535  53.2167 131.9835 0001660 105.5110 254.6065 15.08849826 78174,6917.85,95.437,540.864,538.567,0.0
52535.0,STARLINK-3958,PAYLOAD,2023-10-09 18:57:17,15.08823674,0.0001725,53.2165,128.118,111.9005,248.2171,0.0003071,4.601e-05,0.0,0 STARLINK-3958,1 52535U 22051C   23282.78978124  .00004601  00000-0  30710-3 0  9998,2 52535  53.2165 128.1180 0001725 111.9005 248.2171 15.08823674 78371,6917.93,95.439,540.989,538.602,0.0
52535.0,STARLINK-3958,PAYLOAD,2023-10-10 14:01:53,15.08844226,0.0001444,53.2177,124.5514,102.896,257.2194,9.0485e-05,1.153e-05,0.0,0 STARLINK-3958,1 52535U 22051C   23283.58465143  .00001153  00000-0  90485-4 0  9994,2 52535  53.2177 124.5514 0001444 102.8960 257.2194 15.08844226 78429,6917.867,95.437,540.731,538.734,0.0
